PROGRESS-MS 32          
1 65586U 25204A   25333.12495806  .00008872  00000+0  16795-3 0  9999
2 65586  51.6312 209.8765 0003736 181.3383 178.7596 15.49180644   277
CYGNUS NG-23            
1 65616U 25208A   25333.12495806  .00008872  00000+0  16795-3 0  9997
2 65616  51.6312 209.8765 0003736 181.3383 178.7596 15.49180644   226
DRAGONFLY               
1 65729U 98067XH  25333.04700711  .00127511  00000+0  11600-2 0  9991
2 65729  51.6267 205.6040 0006356 196.4876 163.5914 15.67011643 11012
1998-067XJ              
1 65730U 98067XJ  25333.03673627  .01442919  11845-2  25945-2 0  9999
2 65730  51.6156 200.9674 0011699 211.4242 148.6070 16.01129071 11070
1998-067XK              
1 65731U 98067XK  25333.06158859  .00082770  00000+0  90030-3 0  9998
2 65731  51.6292 206.4604 0006022 170.6962 189.4145 15.62709008 11004
RSP-03                  
1 65732U 98067XL  25333.02376214  .00101188  00000+0  10124-2 0  9992
2 65732  51.6270 206.2029 0006905 172.5964 187.5134 15.64738825 11012
GHS-01                  
1 65733U 98067XM  25333.01834124  .00152819  00000+0  12890-2 0  9990
2 65733  51.6287 205.4181 0006847 194.8011 165.2786 15.68769203 11021
YOTSUBA-KULOVER         
1 65941U 98067XN  25333.05283860  .00061013  00000+0  82249-3 0  9991
2 65941  51.6293 208.6482 0002373 148.1592 211.9543 15.57223707  7728
BOTAN                   
1 65942U 98067XP  25333.08330911  .00089783  00000+0  11006-2 0  9991
2 65942  51.6294 208.1026 0004672 152.2656 207.8587 15.59576719  7739
E-KAGAKU-1              
1 65943U 98067XQ  25332.86008070  .00058470  00000+0  79010-3 0  9994
2 65943  51.6308 209.6132 0003811 129.5629 230.5700 15.57173177  7695
HRC MONOBLOCK CAMERA    
1 66052U 98067XR  25333.27077128  .00034402  00000+0  54828-3 0  9991
2 66052  51.6298 208.5998 0004608 130.5294 229.6098 15.52902397  6741
HTV-X1                  
1 66174U 25241A   25333.12495806  .00008872  00000+0  16795-3 0  9994
2 66174  51.6312 209.8765 0003736 181.3383 178.7596 15.49180644   518
