CCSDS_OMM_VERS = 2.0
CREATION_DATE  = 
ORIGINATOR     = 

OBJECT_NAME    = PROGRESS-MS 32
OBJECT_ID      = 2025-204A
CENTER_NAME    = EARTH
REF_FRAME      = TEME
TIME_SYSTEM    = UTC
MEAN_ELEMENT_THEORY = SGP/SGP4

EPOCH          = 2025-11-29T02:59:56.376384
MEAN_MOTION    = 15.49180644
ECCENTRICITY   = .00037368
INCLINATION    = 51.6312
RA_OF_ASC_NODE = 209.8765
ARG_OF_PERICENTER = 181.3383
MEAN_ANOMALY   = 178.7596

EPHEMERIS_TYPE = 0
CLASSIFICATION_TYPE = U
NORAD_CAT_ID   = 65586
ELEMENT_SET_NO = 999
REV_AT_EPOCH   = 27
BSTAR          = .1679519E-3
MEAN_MOTION_DOT = .8872E-4
MEAN_MOTION_DDOT = 0

CCSDS_OMM_VERS = 2.0
CREATION_DATE  = 
ORIGINATOR     = 

OBJECT_NAME    = CYGNUS NG-23
OBJECT_ID      = 2025-208A
CENTER_NAME    = EARTH
REF_FRAME      = TEME
TIME_SYSTEM    = UTC
MEAN_ELEMENT_THEORY = SGP/SGP4

EPOCH          = 2025-11-29T02:59:56.376384
MEAN_MOTION    = 15.49180644
ECCENTRICITY   = .00037368
INCLINATION    = 51.6312
RA_OF_ASC_NODE = 209.8765
ARG_OF_PERICENTER = 181.3383
MEAN_ANOMALY   = 178.7596

EPHEMERIS_TYPE = 0
CLASSIFICATION_TYPE = U
NORAD_CAT_ID   = 65616
ELEMENT_SET_NO = 999
REV_AT_EPOCH   = 22
BSTAR          = .1679519E-3
MEAN_MOTION_DOT = .8872E-4
MEAN_MOTION_DDOT = 0

CCSDS_OMM_VERS = 2.0
CREATION_DATE  = 
ORIGINATOR     = 

OBJECT_NAME    = DRAGONFLY
OBJECT_ID      = 1998-067XH
CENTER_NAME    = EARTH
REF_FRAME      = TEME
TIME_SYSTEM    = UTC
MEAN_ELEMENT_THEORY = SGP/SGP4

EPOCH          = 2025-11-29T01:07:41.414304
MEAN_MOTION    = 15.67011643
ECCENTRICITY   = .00063566
INCLINATION    = 51.6267
RA_OF_ASC_NODE = 205.6040
ARG_OF_PERICENTER = 196.4876
MEAN_ANOMALY   = 163.5914

EPHEMERIS_TYPE = 0
CLASSIFICATION_TYPE = U
NORAD_CAT_ID   = 65729
ELEMENT_SET_NO = 999
REV_AT_EPOCH   = 1101
BSTAR          = .11599594E-2
MEAN_MOTION_DOT = .127511E-2
MEAN_MOTION_DDOT = 0

CCSDS_OMM_VERS = 2.0
CREATION_DATE  = 
ORIGINATOR     = 

OBJECT_NAME    = 1998-067XJ
OBJECT_ID      = 1998-067XJ
CENTER_NAME    = EARTH
REF_FRAME      = TEME
TIME_SYSTEM    = UTC
MEAN_ELEMENT_THEORY = SGP/SGP4

EPOCH          = 2025-11-29T00:52:54.013728
MEAN_MOTION    = 16.01129071
ECCENTRICITY   = .00116993
INCLINATION    = 51.6156
RA_OF_ASC_NODE = 200.9674
ARG_OF_PERICENTER = 211.4242
MEAN_ANOMALY   = 148.6070

EPHEMERIS_TYPE = 0
CLASSIFICATION_TYPE = U
NORAD_CAT_ID   = 65730
ELEMENT_SET_NO = 999
REV_AT_EPOCH   = 1107
BSTAR          = .25945094E-2
MEAN_MOTION_DOT = .1442919E-1
MEAN_MOTION_DDOT = .11844889E-2

CCSDS_OMM_VERS = 2.0
CREATION_DATE  = 
ORIGINATOR     = 

OBJECT_NAME    = 1998-067XK
OBJECT_ID      = 1998-067XK
CENTER_NAME    = EARTH
REF_FRAME      = TEME
TIME_SYSTEM    = UTC
MEAN_ELEMENT_THEORY = SGP/SGP4

EPOCH          = 2025-11-29T01:28:41.254176
MEAN_MOTION    = 15.62709008
ECCENTRICITY   = .00060228
INCLINATION    = 51.6292
RA_OF_ASC_NODE = 206.4604
ARG_OF_PERICENTER = 170.6962
MEAN_ANOMALY   = 189.4145

EPHEMERIS_TYPE = 0
CLASSIFICATION_TYPE = U
NORAD_CAT_ID   = 65731
ELEMENT_SET_NO = 999
REV_AT_EPOCH   = 1100
BSTAR          = .90029746E-3
MEAN_MOTION_DOT = .8277E-3
MEAN_MOTION_DDOT = 0

CCSDS_OMM_VERS = 2.0
CREATION_DATE  = 
ORIGINATOR     = 

OBJECT_NAME    = RSP-03
OBJECT_ID      = 1998-067XL
CENTER_NAME    = EARTH
REF_FRAME      = TEME
TIME_SYSTEM    = UTC
MEAN_ELEMENT_THEORY = SGP/SGP4

EPOCH          = 2025-11-29T00:34:13.048896
MEAN_MOTION    = 15.64738825
ECCENTRICITY   = .0006905
INCLINATION    = 51.6270
RA_OF_ASC_NODE = 206.2029
ARG_OF_PERICENTER = 172.5964
MEAN_ANOMALY   = 187.5134

EPHEMERIS_TYPE = 0
CLASSIFICATION_TYPE = U
NORAD_CAT_ID   = 65732
ELEMENT_SET_NO = 999
REV_AT_EPOCH   = 1101
BSTAR          = .10124382E-2
MEAN_MOTION_DOT = .101188E-2
MEAN_MOTION_DDOT = 0

CCSDS_OMM_VERS = 2.0
CREATION_DATE  = 
ORIGINATOR     = 

OBJECT_NAME    = GHS-01
OBJECT_ID      = 1998-067XM
CENTER_NAME    = EARTH
REF_FRAME      = TEME
TIME_SYSTEM    = UTC
MEAN_ELEMENT_THEORY = SGP/SGP4

EPOCH          = 2025-11-29T00:26:24.683136
MEAN_MOTION    = 15.68769203
ECCENTRICITY   = .00068479
INCLINATION    = 51.6287
RA_OF_ASC_NODE = 205.4181
ARG_OF_PERICENTER = 194.8011
MEAN_ANOMALY   = 165.2786

EPHEMERIS_TYPE = 0
CLASSIFICATION_TYPE = U
NORAD_CAT_ID   = 65733
ELEMENT_SET_NO = 999
REV_AT_EPOCH   = 1102
BSTAR          = .12889817E-2
MEAN_MOTION_DOT = .152819E-2
MEAN_MOTION_DDOT = 0

CCSDS_OMM_VERS = 2.0
CREATION_DATE  = 
ORIGINATOR     = 

OBJECT_NAME    = YOTSUBA-KULOVER
OBJECT_ID      = 1998-067XN
CENTER_NAME    = EARTH
REF_FRAME      = TEME
TIME_SYSTEM    = UTC
MEAN_ELEMENT_THEORY = SGP/SGP4

EPOCH          = 2025-11-29T01:16:05.255040
MEAN_MOTION    = 15.57223707
ECCENTRICITY   = .00023732
INCLINATION    = 51.6293
RA_OF_ASC_NODE = 208.6482
ARG_OF_PERICENTER = 148.1592
MEAN_ANOMALY   = 211.9543

EPHEMERIS_TYPE = 0
CLASSIFICATION_TYPE = U
NORAD_CAT_ID   = 65941
ELEMENT_SET_NO = 999
REV_AT_EPOCH   = 772
BSTAR          = .82249408E-3
MEAN_MOTION_DOT = .61013E-3
MEAN_MOTION_DDOT = 0

CCSDS_OMM_VERS = 2.0
CREATION_DATE  = 
ORIGINATOR     = 

OBJECT_NAME    = BOTAN
OBJECT_ID      = 1998-067XP
CENTER_NAME    = EARTH
REF_FRAME      = TEME
TIME_SYSTEM    = UTC
MEAN_ELEMENT_THEORY = SGP/SGP4

EPOCH          = 2025-11-29T01:59:57.907104
MEAN_MOTION    = 15.59576719
ECCENTRICITY   = .00046725
INCLINATION    = 51.6294
RA_OF_ASC_NODE = 208.1026
ARG_OF_PERICENTER = 152.2656
MEAN_ANOMALY   = 207.8587

EPHEMERIS_TYPE = 0
CLASSIFICATION_TYPE = U
NORAD_CAT_ID   = 65942
ELEMENT_SET_NO = 999
REV_AT_EPOCH   = 773
BSTAR          = .11005509E-2
MEAN_MOTION_DOT = .89783E-3
MEAN_MOTION_DDOT = 0

CCSDS_OMM_VERS = 2.0
CREATION_DATE  = 
ORIGINATOR     = 

OBJECT_NAME    = E-KAGAKU-1
OBJECT_ID      = 1998-067XQ
CENTER_NAME    = EARTH
REF_FRAME      = TEME
TIME_SYSTEM    = UTC
MEAN_ELEMENT_THEORY = SGP/SGP4

EPOCH          = 2025-11-28T20:38:30.972480
MEAN_MOTION    = 15.57173177
ECCENTRICITY   = .00038111
INCLINATION    = 51.6308
RA_OF_ASC_NODE = 209.6132
ARG_OF_PERICENTER = 129.5629
MEAN_ANOMALY   = 230.5700

EPHEMERIS_TYPE = 0
CLASSIFICATION_TYPE = U
NORAD_CAT_ID   = 65943
ELEMENT_SET_NO = 999
REV_AT_EPOCH   = 769
BSTAR          = .79009998E-3
MEAN_MOTION_DOT = .5847E-3
MEAN_MOTION_DDOT = 0

CCSDS_OMM_VERS = 2.0
CREATION_DATE  = 
ORIGINATOR     = 

OBJECT_NAME    = HRC MONOBLOCK CAMERA
OBJECT_ID      = 1998-067XR
CENTER_NAME    = EARTH
REF_FRAME      = TEME
TIME_SYSTEM    = UTC
MEAN_ELEMENT_THEORY = SGP/SGP4

EPOCH          = 2025-11-29T06:29:54.638592
MEAN_MOTION    = 15.52902397
ECCENTRICITY   = .0004608
INCLINATION    = 51.6298
RA_OF_ASC_NODE = 208.5998
ARG_OF_PERICENTER = 130.5294
MEAN_ANOMALY   = 229.6098

EPHEMERIS_TYPE = 0
CLASSIFICATION_TYPE = U
NORAD_CAT_ID   = 66052
ELEMENT_SET_NO = 999
REV_AT_EPOCH   = 674
BSTAR          = .54828116E-3
MEAN_MOTION_DOT = .34402E-3
MEAN_MOTION_DDOT = 0

CCSDS_OMM_VERS = 2.0
CREATION_DATE  = 
ORIGINATOR     = 

OBJECT_NAME    = HTV-X1
OBJECT_ID      = 2025-241A
CENTER_NAME    = EARTH
REF_FRAME      = TEME
TIME_SYSTEM    = UTC
MEAN_ELEMENT_THEORY = SGP/SGP4

EPOCH          = 2025-11-29T02:59:56.376384
MEAN_MOTION    = 15.49180644
ECCENTRICITY   = .00037368
INCLINATION    = 51.6312
RA_OF_ASC_NODE = 209.8765
ARG_OF_PERICENTER = 181.3383
MEAN_ANOMALY   = 178.7596

EPHEMERIS_TYPE = 0
CLASSIFICATION_TYPE = U
NORAD_CAT_ID   = 66174
ELEMENT_SET_NO = 999
REV_AT_EPOCH   = 51
BSTAR          = .1679519E-3
MEAN_MOTION_DOT = .8872E-4
MEAN_MOTION_DDOT = 0

